NORAD_CAT_ID,OBJECT_NAME,OBJECT_TYPE,EPOCH,MEAN_MOTION,ECCENTRICITY,INCLINATION,RA_OF_ASC_NODE,ARG_OF_PERICENTER,MEAN_ANOMALY,BSTAR,MEAN_MOTION_DOT,MEAN_MOTION_DDOT,TLE_LINE0,TLE_LINE1,TLE_LINE2,SEMIMAJOR_AXIS,PERIOD,APOGEE,PERIGEE,DECAYED
53787.0,STARLINK-4743,PAYLOAD,2022-11-02 22:00:00,15.49913114,0.0001652,53.2176,6.3281,43.7617,64.3428,-0.00081484,-0.00046472,0.0,0 STARLINK-4743,1 53787U 22111Q   22306.91667824 -.00046472  00000-0 -81484-3 0  9996,2 53787  53.2176   6.3281 0001652  43.7617  64.3428 15.49913114  8247,6795.1169999999975,92.908,418.105,415.859,0.0
53787.0,STARLINK-4743,PAYLOAD,2022-11-03 08:00:01,15.4988505,0.0001645,53.2157,4.3379,33.3467,240.7716,-6.5614e-05,-4.174e-05,0.0,0 STARLINK-4743,1 53787U 22111Q   22307.33334491 -.00004174  00000-0 -65614-4 0  9995,2 53787  53.2157   4.3379 0001645  33.3467 240.7716 15.49885050  8306,6795.199000000001,92.91,418.182,415.946,0.0
53787.0,STARLINK-4743,PAYLOAD,2022-11-03 14:00:01,15.49859871,0.000183,53.2156,3.1442,30.5658,199.2409,0.0011992,0.00068145,0.0,0 STARLINK-4743,1 53787U 22111Q   22307.58334491  .00068145  00000-0  11992-2 0  9996,2 53787  53.2156   3.1442 0001830  30.5658 199.2409 15.49859871  1302,6795.273,92.912,418.381,415.894,0.0
53787.0,STARLINK-4743,PAYLOAD,2022-11-03 22:00:00,15.49897419,0.0001649,53.2153,1.5495,34.1888,256.5332,0.00044036,0.00024631,0.0,0 STARLINK-4743,1 53787U 22111Q   22307.91667824  .00024631  00000-0  44036-3 0  9990,2 53787  53.2153   1.5495 0001649  34.1888 256.5332 15.49897419  1304,6795.163000000001,92.909,418.148,415.907,0.0
53787.0,STARLINK-4743,PAYLOAD,2022-11-04 06:00:00,15.49938154,0.000164,53.2157,359.9564,36.2913,315.3627,-1.3368e-05,-1.212e-05,0.0,0 STARLINK-4743,1 53787U 22111Q   22308.25001157 -.00001212  00000-0 -13368-4 0  9996,2 53787  53.2157 359.9564 0001640  36.2913 315.3627 15.49938154  8443,6795.044,92.907,418.023,415.794,0.0
53787.0,STARLINK-4743,PAYLOAD,2022-11-04 14:00:01,15.49966807,0.0001795,53.2164,358.3654,29.9068,22.7186,-0.0014906,-0.00084393,0.0,0 STARLINK-4743,1 53787U 22111Q   22308.58334491 -.00084393  00000-0 -14906-2 0  9990,2 53787  53.2164 358.3654 0001795  29.9068  22.7186 15.49966807  1308,6794.96,92.905,418.045,415.605,0.0
53787.0,STARLINK-4743,PAYLOAD,2022-11-04 22:00:01,15.500628099999998,0.0001842,53.2161,356.7693,38.2615,75.4382,-0.0072415,-0.00393958,0.0,0 STARLINK-4743,1 53787U 22111Q   22308.91668981 -.00393958  00000-0 -72415-2 0  9990,2 53787  53.2161 356.7693 0001842  38.2615  75.4382 15.50062810  1300,6794.68,92.899,417.796,415.293,0.0
53787.0,STARLINK-4743,PAYLOAD,2022-11-05 14:00:01,15.49360801,0.0001673,53.2171,353.5857,40.3765,194.8162,-0.022737,-0.01158302,0.0,0 STARLINK-4743,1 53787U 22111Q   22309.58335648 -.01158302  00000-0 -22737-1 0  9999,2 53787  53.2171 353.5857 0001673  40.3765 194.8162 15.49360801  1301,6796.732,92.942,419.734,417.46,0.0
53787.0,STARLINK-4743,PAYLOAD,2022-11-05 22:00:01,15.48550173,0.0001695,53.2174,351.9932,34.6962,260.2692,-0.023556,-0.01165449,0.0,0 STARLINK-4743,1 53787U 22111Q   22309.91668981 -.01165449  00000-0 -23556-1 0  9995,2 53787  53.2174 351.9932 0001695  34.6962 260.2692 15.48550173  1307,6799.104,92.99,422.121,419.816,0.0
53787.0,STARLINK-4743,PAYLOAD,2022-11-06 14:00:01,15.46930227,0.0001905,53.217,348.8192,28.6442,22.8606,-0.025111,-0.01173133,0.0,0 STARLINK-4743,1 53787U 22111Q   22310.58334491 -.01173133  00000-0 -25111-1 0  9994,2 53787  53.2170 348.8192 0001905  28.6442  22.8606 15.46930227  1303,6803.849,93.088,427.011,424.418,0.0
53787.0,STARLINK-4743,PAYLOAD,2022-11-07 22:00:00,15.4365059,0.0001464,53.2175,342.4887,46.6136,226.3907,-0.027237,-0.0113945,0.0,0 STARLINK-4743,1 53787U 22111Q   22311.91667824 -.01139450  00000-0 -27237-1 0  9996,2 53787  53.2175 342.4887 0001464  46.6136 226.3907 15.43650590  1303,6813.483,93.285,436.345,434.35,0.0
53787.0,STARLINK-4743,PAYLOAD,2022-11-08 00:00:02,15.43448674,0.0001549,53.217,342.0942,34.7247,341.6664,-0.027494,-0.01142105,0.0,0 STARLINK-4743,1 53787U 22111Q   22312.00002315 -.01142105  00000-0 -27494-1 0  9991,2 53787  53.2170 342.0942 0001549  34.7247 341.6664 15.43448674  9038,6814.0769999999975,93.298,436.99800000000016,434.887,0.0
53787.0,STARLINK-4743,PAYLOAD,2022-11-08 14:00:01,15.42040874,0.0001598,53.2166,339.3384,36.8207,341.0489,-0.029411,-0.01162941,0.0,0 STARLINK-4743,1 53787U 22111Q   22312.58334491 -.01162941  00000-0 -29411-1 0  9998,2 53787  53.2166 339.3384 0001598  36.8207 341.0489 15.42040874  1305,6818.224,93.383,441.17800000000005,438.999,0.0
53787.0,STARLINK-4743,PAYLOAD,2022-11-08 22:00:00,15.41209097,0.0001361,53.2174,337.7629,48.2182,20.633000000000006,-0.029573,-0.01139256,0.0,0 STARLINK-4743,1 53787U 22111Q   22312.91667824 -.01139256  00000-0 -29573-1 0  9996,2 53787  53.2174 337.7629 0001361  48.2182  20.6330 15.41209097  9176,6820.677,93.433,443.47,441.61300000000006,0.0
53787.0,STARLINK-4743,PAYLOAD,2022-11-09 14:00:01,15.39644748,0.0001661,53.2164,334.6242,41.9161,125.9109,-0.033689,-0.0122354,0.0,0 STARLINK-4743,1 53787U 22111Q   22313.58334491 -.01223540  00000-0 -33689-1 0  9994,2 53787  53.2164 334.6242 0001661  41.9161 125.9109 15.39644748  1305,6825.295999999999,93.528,448.295,446.027,0.0
53787.0,STARLINK-4743,PAYLOAD,2022-11-09 22:00:01,15.3876714,0.0001730999999999,53.2169,333.0547,38.2541,177.7071,-0.032008,-0.01137288,0.0,0 STARLINK-4743,1 53787U 22111Q   22313.91668981 -.01137288  00000-0 -32008-1 0  9992,2 53787  53.2169 333.0547 0001731  38.2541 177.7071 15.38767140  9324,6827.891,93.581,450.93800000000016,448.574,0.0
53787.0,STARLINK-4743,PAYLOAD,2022-11-10 14:00:01,15.37158964,0.0001578,53.2164,329.9272,38.8993,270.1285,-0.034579,-0.01163065,0.0,0 STARLINK-4743,1 53787U 22111Q   22314.58334491 -.01163065  00000-0 -34579-1 0  9999,2 53787  53.2164 329.9272 0001578  38.8993 270.1285 15.37158964  1306,6832.651999999999,93.679,455.595,453.439,0.0
53787.0,STARLINK-4743,PAYLOAD,2022-11-10 22:00:00,15.36325526,0.000143,53.2172,328.3635,41.9621,312.1807,-0.034641,-0.01136454,0.0,0 STARLINK-4743,1 53787U 22111Q   22314.91667824 -.01136454  00000-0 -34641-1 0  9997,2 53787  53.2172 328.3635 0001430  41.9621 312.1807 15.36325526  9473,6835.123000000001,93.73,457.966,456.011,0.0
53787.0,STARLINK-4743,PAYLOAD,2022-11-11 14:00:01,15.3473302,0.0001798,53.2166,325.2476,33.1659,48.2333,-0.038138,-0.01183985,0.0,0 STARLINK-4743,1 53787U 22111Q   22315.58334491 -.01183985  00000-0 -38138-1 0  9998,2 53787  53.2166 325.2476 0001798  33.1659  48.2333 15.34733020  1301,6839.851,93.827,462.945,460.486,0.0
53787.0,STARLINK-4743,PAYLOAD,2022-11-11 16:00:01,15.34496263,0.000183,53.217,324.8578,38.9809,143.1333,-0.036838,-0.01139203,0.0,0 STARLINK-4743,1 53787U 22111Q   22315.66668981 -.01139203  00000-0 -36838-1 0  9990,2 53787  53.2170 324.8578 0001830  38.9809 143.1333 15.34496263  9590,6840.554,93.842,463.671,461.167,0.0
53787.0,STARLINK-4743,PAYLOAD,2022-11-11 22:00:00,15.33888604,0.0001873,53.217,323.6901,35.5319,88.0534,-0.037688,-0.01142742,0.0,0 STARLINK-4743,1 53787U 22111Q   22315.91667824 -.01142742  00000-0 -37688-1 0  9999,2 53787  53.2170 323.6901 0001873  35.5319  88.0534 15.33888604  1307,6842.361,93.879,465.507,462.944,0.0
53787.0,STARLINK-4743,PAYLOAD,2022-11-12 14:00:01,15.32280822,0.0001756,53.2167,320.5855,43.3095,161.6722,-0.040641,-0.01168428,0.0,0 STARLINK-4743,1 53787U 22111Q   22316.58334491 -.01168428  00000-0 -40641-1 0  9996,2 53787  53.2167 320.5855 0001756  43.3095 161.6722 15.32280822  9734,6847.146,93.978,470.214,467.809,0.0
53787.0,STARLINK-4743,PAYLOAD,2022-11-12 22:00:00,15.3145532,0.0001751,53.217,319.0336,39.2816,204.9436,-0.041093,-0.0115261,0.0,0 STARLINK-4743,1 53787U 22111Q   22316.91667824 -.01152610  00000-0 -41093-1 0  9990,2 53787  53.2170 319.0336 0001751  39.2816 204.9436 15.31455320  1309,6849.606,94.028,472.671,470.272,0.0
53787.0,STARLINK-4743,PAYLOAD,2022-11-13 14:00:01,15.2983167,0.0001667,53.2167,315.9405,37.6745,282.0882,-0.043462,-0.01158159,0.0,0 STARLINK-4743,1 53787U 22111Q   22317.58334491 -.01158159  00000-0 -43462-1 0  9991,2 53787  53.2167 315.9405 0001667  37.6745 282.0882 15.29831670  1301,6854.4519999999975,94.128,477.46,475.174,0.0
53787.0,STARLINK-4743,PAYLOAD,2022-11-13 22:00:00,15.29013619,0.0001716,53.217,314.3947,32.9556,323.1124,-0.044265,-0.01150724,0.0,0 STARLINK-4743,1 53787U 22111Q   22317.91667824 -.01150724  00000-0 -44265-1 0  9999,2 53787  53.2170 314.3947 0001716  32.9556 323.1124 15.29013619  1303,6856.897,94.178,479.93800000000016,477.585,0.0
53787.0,STARLINK-4743,PAYLOAD,2022-11-14 14:00:01,15.27375653,0.0001923,53.2173,311.313,30.3699,35.3759,-0.045936,-0.0113681,0.0,0 STARLINK-4743,1 53787U 22111Q   22318.58334491 -.01136810  00000-0 -45936-1 0  9990,2 53787  53.2173 311.3130 0001923  30.3699  35.3759 15.27375653  1300,6861.7980000000025,94.279,484.983,482.344,0.0
53787.0,STARLINK-4743,PAYLOAD,2022-11-14 22:00:00,15.26560834,0.0001896,53.2174,309.7728,34.3408,64.77600000000001,-0.047036,-0.01135519,0.0,0 STARLINK-4743,1 53787U 22111Q   22318.91667824 -.01135519  00000-0 -47036-1 0  9994,2 53787  53.2174 309.7728 0001896  34.3408  64.7760 15.26560834  1300,6864.24,94.33,487.406,484.80300000000005,0.0
53787.0,STARLINK-4743,PAYLOAD,2022-11-15 02:00:01,15.26154707,0.0001744,53.2177,309.0051,38.059,257.3748,-0.047632,-0.01135717,0.0,0 STARLINK-4743,1 53787U 22111Q   22319.08334491 -.01135717  00000-0 -47632-1 0  9996,2 53787  53.2177 309.0051 0001744  38.0590 257.3748 15.26154707 10113,6865.456999999999,94.355,488.52,486.125,0.0
53787.0,STARLINK-4743,PAYLOAD,2022-11-15 14:00:01,15.24955207,0.0001846,53.2166,306.7026,41.2021,121.7084,-0.050732,-0.01179619,0.0,0 STARLINK-4743,1 53787U 22111Q   22319.58334491 -.01179619  00000-0 -50732-1 0  9995,2 53787  53.2166 306.7026 0001846  41.2021 121.7084 15.24955207  1305,6869.057,94.429,492.19,489.654,0.0
